GLOBALSTAR M075         
1 37192U 10054E   24117.64495941 -.00000073  00000+0  17313-3 0  9997
2 37192  51.9977   9.8162 0000842  75.6307 295.7140 12.62273098623403
GLOBALSTAR M073         
1 37193U 10054F   24117.49173830 -.00000089  00000+0  80936-4 0  9990
2 37193  52.0059 283.7848 0000843 115.5027 279.0506 12.62264406625210
GLOBALSTAR M083         
1 37739U 11033A   24117.57935421 -.00000060  00000+0  24509-3 0  9997
2 37739  51.9855 232.8170 0000583  99.9791 273.6939 12.62269349594244
GLOBALSTAR M088         
1 37740U 11033B   24117.82506762 -.00000089  00000+0  82273-4 0  9993
2 37740  51.9711 137.9103 0000381  68.9005 102.4027 12.62267656590105
GLOBALSTAR M091         
1 37741U 11033C   24117.26889830 -.00000105  00000+0 -47499-5 0  9994
2 37741  51.9983 102.4121 0000621  51.7826  50.6361 12.62261981590539
GLOBALSTAR M085         
1 37742U 11033D   24117.58752769 -.00000091  00000+0  70796-4 0  9998
2 37742  51.9883  52.8487 0000804  59.5787 111.4512 12.62269975591083
GLOBALSTAR M081         
1 37743U 11033E   24115.06019661 -.00000104  00000+0 -28749-5 0  9995
2 37743  51.9967  63.0737 0000854  68.1855  12.4673 12.62264435590911
GLOBALSTAR M089         
1 37744U 11033F   24117.41637013 -.00000062  00000+0  23541-3 0  9999
2 37744  51.9958  10.2096 0000690 108.4922  63.2112 12.62262669592051
